NORAD_CAT_ID,OBJECT_NAME,OBJECT_TYPE,EPOCH,MEAN_MOTION,ECCENTRICITY,INCLINATION,RA_OF_ASC_NODE,ARG_OF_PERICENTER,MEAN_ANOMALY,BSTAR,MEAN_MOTION_DOT,MEAN_MOTION_DDOT,TLE_LINE0,TLE_LINE1,TLE_LINE2,SEMIMAJOR_AXIS,PERIOD,APOGEE,PERIGEE,DECAYED
54063.0,STARLINK-5225,PAYLOAD,2023-12-25 23:55:13,15.08888865,0.0001556,53.2173,356.4608,96.9785,263.1384,0.00080974,0.0001264,0.0,0 STARLINK-5225,1 54063U 22136N   23359.99667889  .00012640  00000-0  80974-3 0  9990,2 54063  53.2173 356.4608 0001556  96.9785 263.1384 15.08888865 65841,6917.731,95.434,540.672,538.52,0.0
54063.0,STARLINK-5225,PAYLOAD,2023-12-26 09:27:33,15.08832381,0.0001454,53.2172,354.6759,80.2832,279.8324,-0.00045282,-7.486e-05,0.0,0 STARLINK-5225,1 54063U 22136N   23360.39413247 -.00007486  00000-0 -45282-3 0  9990,2 54063  53.2172 354.6759 0001454  80.2832 279.8324 15.08832381 65900,6917.904,95.438,540.775,538.763,0.0
54063.0,STARLINK-5225,PAYLOAD,2023-12-27 09:18:21,15.08826499,0.0001654,53.2186,350.2136,86.8795,273.2387,0.00070466,0.0001094,0.0,0 STARLINK-5225,1 54063U 22136N   23361.38774705  .00010940  00000-0  70466-3 0  9998,2 54063  53.2186 350.2136 0001654  86.8795 273.2387 15.08826499 65571,6917.922,95.438,540.931,538.642,0.0
54063.0,STARLINK-5225,PAYLOAD,2023-12-28 04:22:59,15.08832696,0.0001639,53.2185,346.6446,97.072,263.0459,0.00043557,6.65e-05,0.0,0 STARLINK-5225,1 54063U 22136N   23362.18263308  .00006650  00000-0  43557-3 0  9993,2 54063  53.2185 346.6446 0001639  97.0720 263.0459 15.08832696 66178,6917.903,95.438,540.902,538.634,0.0
54063.0,STARLINK-5225,PAYLOAD,2023-12-28 09:09:08,15.08837094,0.0001666,53.2187,345.7525,99.2297,260.8884,0.00046314,7.09e-05,0.0,0 STARLINK-5225,1 54063U 22136N   23362.38135302  .00007090  00000-0  46314-3 0  9990,2 54063  53.2187 345.7525 0001666  99.2297 260.8884 15.08837094 65725,6917.889,95.438,540.907,538.602,0.0
54063.0,STARLINK-5225,PAYLOAD,2023-12-29 04:13:46,15.08836104,0.0001644,53.2186,342.1827,102.98,257.1376,0.0001895,2.729e-05,0.0,0 STARLINK-5225,1 54063U 22136N   23363.17623599  .00002729  00000-0  18950-3 0  9997,2 54063  53.2186 342.1827 0001644 102.9800 257.1376 15.08836104 66321,6917.892,95.438,540.895,538.62,0.0
54063.0,STARLINK-5225,PAYLOAD,2023-12-30 07:15:19,15.08852198,0.0001495,53.2181,337.1279,93.3173,266.799,0.00036654,5.552e-05,0.0,0 STARLINK-5225,1 54063U 22136N   23364.30231195  .00005552  00000-0  36654-3 0  9998,2 54063  53.2181 337.1279 0001495  93.3173 266.7990 15.08852198 66498,6917.843,95.437,540.742,538.674,0.0
54063.0,STARLINK-5225,PAYLOAD,2023-12-31 03:55:20,15.0883994,0.0001439,53.2176,333.267,86.64,273.4757,8.7338e-05,1.102e-05,0.0,0 STARLINK-5225,1 54063U 22136N   23365.16343727  .00001102  00000-0  87338-4 0  9991,2 54063  53.2176 333.2670 0001439  86.6400 273.4757 15.08839940 66621,6917.881,95.438,540.741,538.75,0.0
54063.0,STARLINK-5225,PAYLOAD,2023-12-31 07:06:07,15.08842038,0.0001485,53.218,332.6684,89.5672,270.549,0.00011433,1.532e-05,0.0,0 STARLINK-5225,1 54063U 22136N   23365.29591618  .00001532  00000-0  11433-3 0  9998,2 54063  53.2180 332.6684 0001485  89.5672 270.5490 15.08842038 66161,6917.874,95.437,540.766,538.712,0.0
54063.0,STARLINK-5225,PAYLOAD,2024-01-01 05:21:31,15.08845547,0.0001483,53.2177,328.5064,93.5084,266.6078,0.0001641,2.325e-05,0.0,0 STARLINK-5225,1 54063U 22136N   24001.22327615  .00002325  00000-0  16410-3 0  9994,2 54063  53.2177 328.5064 0001483  93.5084 266.6078 15.08845547 66787,6917.863,95.437,540.754,538.703,0.0
54063.0,STARLINK-5225,PAYLOAD,2024-01-01 21:15:22,15.08843229,0.0001453,53.2167,325.5382,90.2272,269.8886,0.00022594,3.31e-05,0.0,0 STARLINK-5225,1 54063U 22136N   24001.88567916  .00003310  00000-0  22594-3 0  9991,2 54063  53.2167 325.5382 0001453  90.2272 269.8886 15.08843229 66402,6917.871,95.437,540.741,538.73,0.0
54063.0,STARLINK-5225,PAYLOAD,2024-01-02 03:36:55,15.0884469,0.0001531,53.217,324.3471,86.6696,273.4471,0.00023779,3.499e-05,0.0,0 STARLINK-5225,1 54063U 22136N   24002.15063946  .00003499  00000-0  23779-3 0  9990,2 54063  53.2170 324.3471 0001531  86.6696 273.4471 15.08844690 66929,6917.866,95.437,540.79,538.672,0.0
54063.0,STARLINK-5225,PAYLOAD,2024-01-02 21:06:09,15.08847891,0.0001568,53.2166,321.0762,86.1727,273.9445,0.00020286,2.943e-05,0.0,0 STARLINK-5225,1 54063U 22136N   24002.87927735  .00002943  00000-0  20286-3 0  9997,2 54063  53.2166 321.0762 0001568  86.1727 273.9445 15.08847891 66552,6917.856,95.437,540.806,538.637,0.0
54063.0,STARLINK-5225,PAYLOAD,2024-01-03 03:27:42,15.08847479,0.0001483,53.2176,319.8862,92.2422,267.874,0.00015799,2.228e-05,0.0,0 STARLINK-5225,1 54063U 22136N   24003.14423644  .00002228  00000-0  15799-3 0  9997,2 54063  53.2176 319.8862 0001483  92.2422 267.8740 15.08847479 66591,6917.858,95.437,540.748,538.697,0.0
54063.0,STARLINK-5225,PAYLOAD,2024-01-04 03:18:29,15.08838275,0.0001603,53.2184,315.4264,99.0194,261.098,6.9914e-06,-1.77e-06,0.0,0 STARLINK-5225,1 54063U 22136N   24004.13784119 -.00000177  00000-0  69914-5 0  9996,2 54063  53.2184 315.4264 0001603  99.0194 261.0980 15.08838275 67220,6917.886,95.438,540.86,538.642,0.0
54063.0,STARLINK-5225,PAYLOAD,2024-01-04 06:29:15,15.08842016,0.0001505,53.2187,314.8302,97.7161,262.4002,1.8601e-05,8e-08,0.0,0 STARLINK-5225,1 54063U 22136N   24004.27031968  .00000008  00000-0  18601-4 0  9996,2 54063  53.2187 314.8302 0001505  97.7161 262.4002 15.08842016 66765,6917.874,95.437,540.78,538.698,0.0
54063.0,STARLINK-5225,PAYLOAD,2024-01-05 03:09:16,15.08846112,0.0001629,53.2189,310.9634,102.8929,257.2246,6.435e-05,7.36e-06,0.0,0 STARLINK-5225,1 54063U 22136N   24005.13143525  .00000736  00000-0  64350-4 0  9995,2 54063  53.2189 310.9634 0001629 102.8929 257.2246 15.08846112 67370,6917.862,95.437,540.854,538.6,0.0
54063.0,STARLINK-5225,PAYLOAD,2024-01-05 20:38:31,15.08836644,0.0001796,53.2198,307.6947,108.6309,251.4878,3.7637e-05,3.11e-06,0.0,0 STARLINK-5225,1 54063U 22136N   24005.86008304  .00000311  00000-0  37637-4 0  9997,2 54063  53.2198 307.6947 0001796 108.6309 251.4878 15.08836644 67489,6917.891,95.438,540.998,538.513,0.0
54063.0,STARLINK-5225,PAYLOAD,2024-01-05 23:49:17,15.08837809,0.0001482,53.2184,307.0987,110.0106,250.1045,5.7752e-05,6.31e-06,0.0,0 STARLINK-5225,1 54063U 22136N   24005.99256245  .00000631  00000-0  57752-4 0  9995,2 54063  53.2184 307.0987 0001482 110.0106 250.1045 15.08837809 67022,6917.887,95.438,540.777,538.727,0.0
54063.0,STARLINK-5225,PAYLOAD,2024-01-06 18:53:55,15.0884263,0.0001832,53.2186,303.5309,102.4073,257.7124,-4.5281e-05,-1.009e-05,0.0,0 STARLINK-5225,1 54063U 22136N   24006.78744357 -.00001009  00000-0 -45281-4 0  9995,2 54063  53.2186 303.5309 0001832 102.4073 257.7124 15.08842630 67142,6917.872,95.437,541.005,538.47,0.0
54063.0,STARLINK-5225,PAYLOAD,2024-01-07 01:15:27,15.08842093,0.000142,53.2177,302.3415,112.0779,248.0364,-2.8382e-05,-7.4e-06,0.0,0 STARLINK-5225,1 54063U 22136N   24007.05240467 -.00000740  00000-0 -28382-4 0  9993,2 54063  53.2177 302.3415 0001420 112.0779 248.0364 15.08842093 67669,6917.874,95.437,540.721,538.757,0.0
54063.0,STARLINK-5225,PAYLOAD,2024-01-07 06:01:37,15.08841247,0.0001654,53.2179,301.449,121.7907,238.3246,5.1558e-05,5.33e-06,0.0,0 STARLINK-5225,1 54063U 22136N   24007.25112285  .00000533  00000-0  51558-4 0  9990,2 54063  53.2179 301.4490 0001654 121.7907 238.3246 15.08841247 67215,6917.877,95.437,540.886,538.597,0.0
54063.0,STARLINK-5225,PAYLOAD,2024-01-08 02:41:38,15.08840585,0.0001441,53.2179,297.5841,69.9289,290.1858,9.6068e-05,1.241e-05,0.0,0 STARLINK-5225,1 54063U 22136N   24008.11224607  .00001241  00000-0  96068-4 0  9990,2 54063  53.2179 297.5841 0001441  69.9289 290.1858 15.08840585 67826,6917.879,95.438,540.74,538.747,0.0
54063.0,STARLINK-5225,PAYLOAD,2024-01-08 04:17:00,15.08846238,0.0001207,53.2176,297.2867,94.1605,265.9525,0.00013943,1.932e-05,0.0,0 STARLINK-5225,1 54063U 22136N   24008.17848020  .00001932  00000-0  13943-3 0  9994,2 54063  53.2176 297.2867 0001207  94.1605 265.9525 15.08846238 67350,6917.861,95.437,540.561,538.891,0.0
54063.0,STARLINK-5225,PAYLOAD,2024-01-09 04:07:47,15.08849173,0.0001745,53.2188,292.8198,116.3225,243.7946,6.0209e-05,6.7e-06,0.0,0 STARLINK-5225,1 54063U 22136N   24009.17208084  .00000670  00000-0  60209-4 0  9991,2 54063  53.2188 292.8198 0001745 116.3225 243.7946 15.08849173 67984,6917.852,95.437,540.925,538.51,0.0
54063.0,STARLINK-5225,PAYLOAD,2024-01-10 03:58:35,15.08840425,0.0001842,53.2199,288.3551,67.7638,292.355,0.000151,2.116e-05,0.0,0 STARLINK-5225,1 54063U 22136N   24010.16568653  .00002116  00000-0  15100-3 0  9999,2 54063  53.2199 288.3551 0001842  67.7638 292.3550 15.08840425 68134,6917.879,95.438,541.018,538.47,0.0
54063.0,STARLINK-5225,PAYLOAD,2024-01-11 03:49:21,15.088501,0.0001811,53.2196,283.8969,111.7719,248.3466,5.5098e-05,5.89e-06,0.0,0 STARLINK-5225,1 54063U 22136N   24011.15927907  .00000589  00000-0  55098-4 0  9993,2 54063  53.2196 283.8969 0001811 111.7719 248.3466 15.08850100 67801,6917.85,95.437,540.967,538.462,0.0
54063.0,STARLINK-5225,PAYLOAD,2024-01-11 21:18:36,15.08837912,0.0001866,53.2195,280.6231,120.0734,240.0443,3.1252e-05,2.09e-06,0.0,0 STARLINK-5225,1 54063U 22136N   24011.88792742  .00000209  00000-0  31252-4 0  9995,2 54063  53.2195 280.6231 0001866 120.0734 240.0443 15.08837912 67919,6917.887,95.438,541.043,538.461,0.0
54063.0,STARLINK-5225,PAYLOAD,2024-01-11 22:53:59,15.08839136,0.0001918,53.2186,280.3265,122.6877,237.43,3.1576e-05,2.14e-06,0.0,0 STARLINK-5225,1 54063U 22136N   24011.95416640  .00000214  00000-0  31576-4 0  9998,2 54063  53.2186 280.3265 0001918 122.6877 237.4300 15.08839136 68404,6917.883,95.438,541.075,538.421,0.0
54063.0,STARLINK-5225,PAYLOAD,2024-01-12 22:44:47,15.08840239,0.0001495,53.2175,275.8646,109.5498,250.5655,-2.9551e-05,-7.58e-06,0.0,0 STARLINK-5225,1 54063U 22136N   24012.94777062 -.00000758  00000-0 -29551-4 0  9991,2 54063  53.2175 275.8646 0001495 109.5498 250.5655 15.08840239 68075,6917.88,95.438,540.779,538.71,0.0
